NAVSTAR 77 (USA 289)    
1 43873U 18109A   24297.96560903  .00000043  00000+0  00000+0 0  9991
2 43873  55.3511 115.9367 0031355 191.7797 340.0396  2.00560999 43010
